{
  "norad_id": 55366,
  "name": "STARLINK-5654",
  "history": [
    {
      "epoch": "2026-03-28T13:06:53.438112Z",
      "apogee_km": 486.53990488096224,
      "perigee_km": 484.5353000765617,
      "latitude_deg": -2.7217368229395117e-05,
      "longitude_deg": 158.97066888636127,
      "height_km": 485.08466837270964,
      "semi_major_axis_km": 6863.674602478762,
      "eccentricity": 0.00014603,
      "inclination_deg": 43.0018,
      "raan_deg": 181.6587,
      "arg_perigee_deg": 283.2643,
      "mean_anomaly_deg": 76.8045,
      "mean_motion_rev_day": 15.26749312
    }
  ]
}