{"fetched_at":"2026-03-29T16:36:15Z","count":15609,"tles":[{"name":"STARLINK-5654","line1":"1 55366U 23013AM  26087.54645183  .00000296  00000+0  20700-4 0  9992","line2":"2 55366  43.0018 181.6587 0001460 283.2643  76.8045 15.26749312174730","category":"Starlink"}]}